[{"OBJECT_NAME":"STARLINK-34922","OBJECT_ID":"2025-184A","EPOCH":"2026-03-09T16:41:02.223168","MEAN_MOTION":15.0565116,"ECCENTRICITY":9.631e-5,"INCLINATION":97.6036,"RA_OF_ASC_NODE":122.6941,"ARG_OF_PERICENTER":216.5585,"MEAN_ANOMALY":143.5576,"EPHEMERIS_TYPE":0,"CLASSIFICATION_TYPE":"U","NORAD_CAT_ID":65273,"ELEMENT_SET_NO":999,"REV_AT_EPOCH":3130,"BSTAR":0.00042586516,"MEAN_MOTION_DOT":6.089e-5,"MEAN_MOTION_DDOT":0},{"OBJECT_NAME":"CZ-6A DEB","OBJECT_ID":"2024-140BZ","EPOCH":"2026-03-09T14:49:21.592992","MEAN_MOTION":14.79384468,"ECCENTRICITY":0.0146889,"INCLINATION":88.732,"RA_OF_ASC_NODE":260.453,"ARG_OF_PERICENTER":155.7611,"MEAN_ANOMALY":205.0618,"EPHEMERIS_TYPE":0,"CLASSIFICATION_TYPE":"U","NORAD_CAT_ID":60672,"ELEMENT_SET_NO":999,"REV_AT_EPOCH":8505,"BSTAR":0.0010732,"MEAN_MOTION_DOT":9.637e-5,"MEAN_MOTION_DDOT":0}]
